{"RECORDS":[{"CCSDS_OMM_VERS":85648.99,"CREATION_DATE":"2077-01-17T20:26:57.257Z","ORIGINATOR":"Medhurst LLC","OBJECT_NAME":"O,;qAdU|3y","OBJECT_ID":"$^c=^*?<z]","CENTER_NAME":"0oNGW0I=;a","REF_FRAME":4,"REF_FRAME_EPOCH":"2034-05-04T04:47:23.086Z","TIME_SYSTEM":6,"MEAN_ELEMENT_THEORY":0,"COMMENT":"a?>O^dE&n(","EPOCH":"2096-07-19T18:53:14.727Z","SEMI_MAJOR_AXIS":57220.49,"MEAN_MOTION":79365.94,"ECCENTRICITY":29679.22,"INCLINATION":52059.41,"RA_OF_ASC_NODE":47966.28,"ARG_OF_PERICENTER":91188.45,"MEAN_ANOMALY":52125.92,"GM":80189.45,"MASS":62007.88,"SOLAR_RAD_AREA":89599.71,"SOLAR_RAD_COEFF":27396.79,"DRAG_AREA":44363.79,"DRAG_COEFF":77171.59,"EPHEMERIS_TYPE":2,"CLASSIFICATION_TYPE":"w]r0PB]-.}","NORAD_CAT_ID":2343947498,"ELEMENT_SET_NO":382934168,"REV_AT_EPOCH":57121.86,"BSTAR":4514.22,"MEAN_MOTION_DOT":26601.87,"MEAN_MOTION_DDOT":50930.16,"COV_REF_FRAME":2,"CX_X":17961.89,"CY_X":52529.11,"CY_Y":80979.62,"CZ_X":11986.61,"CZ_Y":43784.19,"CZ_Z":46546.85,"CX_DOT_X":69657.81,"CX_DOT_Y":89021.24,"CX_DOT_Z":30139.26,"CX_DOT_X_DOT":71206.02,"CY_DOT_X":92068.01,"CY_DOT_Y":18602.92,"CY_DOT_Z":53357.23,"CY_DOT_X_DOT":8501.79,"CY_DOT_Y_DOT":19869.27,"CZ_DOT_X":95409.87,"CZ_DOT_Y":77633.3,"CZ_DOT_Z":49359.46,"CZ_DOT_X_DOT":44163.8,"CZ_DOT_Y_DOT":92557.41,"CZ_DOT_Z_DOT":81419.29,"USER_DEFINED_BIP_0044_TYPE":756098042,"USER_DEFINED_OBJECT_DESIGNATOR":"/k=KgwW=^R","USER_DEFINED_EARTH_MODEL":"m4?b}05D]x","USER_DEFINED_EPOCH_TIMESTAMP":64562.11,"USER_DEFINED_MICROSECONDS":20290.48}]}